{
  "type": "FeatureCollection",
  "features": [
    {
      "type": "Feature",
      "properties": {
        "norad_id": 65731,
        "name": "1998-067XK",
        "group": "stations",
        "lat": -36.967545437587894,
        "lon": 56.62403503435,
        "alt_km": 367.59069112534416,
        "timestamp": "2025-12-21T09:37:21.406139+00:00",
        "meta_object_name": "1998-067XK",
        "meta_object_id": "1998-067XK",
        "meta_epoch": "2025-12-20T00:10:02.026560",
        "meta_mean_motion": 15.67078773,
        "meta_eccentricity": 0.00047639,
        "meta_inclination": 51.6294,
        "meta_ra_of_asc_node": 100.3244,
        "meta_arg_of_pericenter": 292.7833,
        "meta_mean_anomaly": 67.2659,
        "meta_ephemeris_type": 0,
        "meta_classification_type": "U",
        "meta_norad_cat_id": 65731,
        "meta_element_set_no": 999,
        "meta_rev_at_epoch": 1428,
        "meta_bstar": 0.00070175188,
        "meta_mean_motion_dot": 0.00076617,
        "meta_mean_motion_ddot": 0,
        "tle_line1": "1 65731U 98067XK  25354.00696790  .00076617  00000+0  70175-3 0  9997",
        "tle_line2": "2 65731  51.6294 100.3244 0004763 292.7833  67.2659 15.67078773 14280"
      },
      "geometry": {
        "type": "Point",
        "coordinates": [
          56.62403503435,
          -36.967545437587894
        ]
      }
    },
    {
      "type": "Feature",
      "properties": {
        "norad_id": 65732,
        "name": "RSP-03",
        "group": "stations",
        "lat": 16.135091493613075,
        "lon": 105.57195751643073,
        "alt_km": 354.5836800464249,
        "timestamp": "2025-12-21T09:37:21.406152+00:00",
        "meta_object_name": "RSP-03",
        "meta_object_id": "1998-067XL",
        "meta_epoch": "2025-12-19T10:11:34.022112",
        "meta_mean_motion": 15.70283101,
        "meta_eccentricity": 0.0005658,
        "meta_inclination": 51.6265,
        "meta_ra_of_asc_node": 102.4221,
        "meta_arg_of_pericenter": 294.5755,
        "meta_mean_anomaly": 65.4652,
        "meta_ephemeris_type": 0,
        "meta_classification_type": "U",
        "meta_norad_cat_id": 65732,
        "meta_element_set_no": 999,
        "meta_rev_at_epoch": 1421,
        "meta_bstar": 0.00084699,
        "meta_mean_motion_dot": 0.00106087,
        "meta_mean_motion_ddot": 0,
        "tle_line1": "1 65732U 98067XL  25353.42469933  .00106087  00000+0  84699-3 0  9991",
        "tle_line2": "2 65732  51.6265 102.4221 0005658 294.5755  65.4652 15.70283101 14217"
      },
      "geometry": {
        "type": "Point",
        "coordinates": [
          105.57195751643073,
          16.135091493613075
        ]
      }
    },
    {
      "type": "Feature",
      "properties": {
        "norad_id": 65733,
        "name": "GHS-01",
        "group": "stations",
        "lat": 17.897443977970646,
        "lon": -104.29216578618511,
        "alt_km": 338.65385279945076,
        "timestamp": "2025-12-21T09:37:21.406163+00:00",
        "meta_object_name": "GHS-01",
        "meta_object_id": "1998-067XM",
        "meta_epoch": "2025-12-20T20:48:16.616736",
        "meta_mean_motion": 15.78264092,
        "meta_eccentricity": 0.0008588,
        "meta_inclination": 51.6278,
        "meta_ra_of_asc_node": 93.2966,
        "meta_arg_of_pericenter": 331.6414,
        "meta_mean_anomaly": 28.4119,
        "meta_ephemeris_type": 0,
        "meta_classification_type": "U",
        "meta_norad_cat_id": 65733,
        "meta_element_set_no": 999,
        "meta_rev_at_epoch": 1446,
        "meta_bstar": 0.0010694,
        "meta_mean_motion_dot": 0.00191722,
        "meta_mean_motion_ddot": 0,
        "tle_line1": "1 65733U 98067XM  25354.86685899  .00191722  00000+0  10694-2 0  9995",
        "tle_line2": "2 65733  51.6278  93.2966 0008588 331.6414  28.4119 15.78264092 14465"
      },
      "geometry": {
        "type": "Point",
        "coordinates": [
          -104.29216578618511,
          17.897443977970646
        ]
      }
    },
    {
      "type": "Feature",
      "properties": {
        "norad_id": 65941,
        "name": "YOTSUBA-KULOVER",
        "group": "stations",
        "lat": -35.05829803538088,
        "lon": -49.81359966316102,
        "alt_km": 390.3771969274976,
        "timestamp": "2025-12-21T09:37:21.406174+00:00",
        "meta_object_name": "YOTSUBA-KULOVER",
        "meta_object_id": "1998-067XN",
        "meta_epoch": "2025-12-20T17:17:02.919552",
        "meta_mean_motion": 15.60468016,
        "meta_eccentricity": 0.00018346,
        "meta_inclination": 51.6291,
        "meta_ra_of_asc_node": 99.8352,
        "meta_arg_of_pericenter": 329.1843,
        "meta_mean_anomaly": 30.9043,
        "meta_ephemeris_type": 0,
        "meta_classification_type": "U",
        "meta_norad_cat_id": 65941,
        "meta_element_set_no": 999,
        "meta_rev_at_epoch": 1110,
        "meta_bstar": 0.00060496039,
        "meta_mean_motion_dot": 0.00050568,
        "meta_mean_motion_ddot": 0,
        "tle_line1": "1 65941U 98067XN  25354.72017268  .00050568  00000+0  60496-3 0  9998",
        "tle_line2": "2 65941  51.6291  99.8352 0001834 329.1843  30.9043 15.60468016 11102"
      },
      "geometry": {
        "type": "Point",
        "coordinates": [
          -49.81359966316102,
          -35.05829803538088
        ]
      }
    },
    {
      "type": "Feature",
      "properties": {
        "norad_id": 65942,
        "name": "BOTAN",
        "group": "stations",
        "lat": -35.259114204268776,
        "lon": 61.40919150937458,
        "alt_km": 376.4560310934048,
        "timestamp": "2025-12-21T09:37:21.406187+00:00",
        "meta_object_name": "BOTAN",
        "meta_object_id": "1998-067XP",
        "meta_epoch": "2025-12-20T13:53:44.237472",
        "meta_mean_motion": 15.64441775,
        "meta_eccentricity": 0.00029505,
        "meta_inclination": 51.6283,
        "meta_ra_of_asc_node": 99.6415,
        "meta_arg_of_pericenter": 304.2475,
        "meta_mean_anomaly": 55.824,
        "meta_ephemeris_type": 0,
        "meta_classification_type": "U",
        "meta_norad_cat_id": 65942,
        "meta_element_set_no": 999,
        "meta_rev_at_epoch": 1109,
        "meta_bstar": 0.00083574073,
        "meta_mean_motion_dot": 0.00082185,
        "meta_mean_motion_ddot": 0,
        "tle_line1": "1 65942U 98067XP  25354.57898423  .00082185  00000+0  83574-3 0  9994",
        "tle_line2": "2 65942  51.6283  99.6415 0002950 304.2475  55.8240 15.64441775 11097"
      },
      "geometry": {
        "type": "Point",
        "coordinates": [
          61.40919150937458,
          -35.259114204268776
        ]
      }
    },
    {
      "type": "Feature",
      "properties": {
        "norad_id": 65943,
        "name": "E-KAGAKU-1",
        "group": "stations",
        "lat": -34.94043843440017,
        "lon": -49.98229815730577,
        "alt_km": 389.07747035402826,
        "timestamp": "2025-12-21T09:37:21.406198+00:00",
        "meta_object_name": "E-KAGAKU-1",
        "meta_object_id": "1998-067XQ",
        "meta_epoch": "2025-12-18T08:24:49.666176",
        "meta_mean_motion": 15.60193795,
        "meta_eccentricity": 0.00013451,
        "meta_inclination": 51.6302,
        "meta_ra_of_asc_node": 111.7666,
        "meta_arg_of_pericenter": 249.8249,
        "meta_mean_anomaly": 110.26,
        "meta_ephemeris_type": 0,
        "meta_classification_type": "U",
        "meta_norad_cat_id": 65943,
        "meta_element_set_no": 999,
        "meta_rev_at_epoch": 1073,
        "meta_bstar": 0.00084619625,
        "meta_mean_motion_dot": 0.00070368,
        "meta_mean_motion_ddot": 0,
        "tle_line1": "1 65943U 98067XQ  25352.35057484  .00070368  00000+0  84620-3 0  9996",
        "tle_line2": "2 65943  51.6302 111.7666 0001345 249.8249 110.2600 15.60193795 10732"
      },
      "geometry": {
        "type": "Point",
        "coordinates": [
          -49.98229815730577,
          -34.94043843440017
        ]
      }
    },
    {
      "type": "Feature",
      "properties": {
        "norad_id": 66052,
        "name": "HRC MONOBLOCK CAMERA",
        "group": "stations",
        "lat": 27.484202729309484,
        "lon": 122.64257580669285,
        "alt_km": 401.23205503845384,
        "timestamp": "2025-12-21T09:37:21.406208+00:00",
        "meta_object_name": "HRC MONOBLOCK CAMERA",
        "meta_object_id": "1998-067XR",
        "meta_epoch": "2025-12-21T00:12:43.040736",
        "meta_mean_motion": 15.54684783,
        "meta_eccentricity": 0.0002424,
        "meta_inclination": 51.6308,
        "meta_ra_of_asc_node": 100.2596,
        "meta_arg_of_pericenter": 223.3517,
        "meta_mean_anomaly": 136.7283,
        "meta_ephemeris_type": 0,
        "meta_classification_type": "U",
        "meta_norad_cat_id": 66052,
        "meta_element_set_no": 999,
        "meta_rev_at_epoch": 1012,
        "meta_bstar": 0.00039907,
        "meta_mean_motion_dot": 0.00026569,
        "meta_mean_motion_ddot": 0,
        "tle_line1": "1 66052U 98067XR  25355.00883149  .00026569  00000+0  39907-3 0  9990",
        "tle_line2": "2 66052  51.6308 100.2596 0002424 223.3517 136.7283 15.54684783 10127"
      },
      "geometry": {
        "type": "Point",
        "coordinates": [
          122.64257580669285,
          27.484202729309484
        ]
      }
    }
  ]
}